$$SOE
2460728.500000000, A.D. 2025-Feb-22 00:00:00.0000, -4.152339134210543E+08, 3.044955514854985E+08, -2.724760989834964E+08,
2460735.500000000, A.D. 2025-Mar-01 00:00:00.0000, -4.198549506997511E+08, 2.992389966360646E+08, -2.717215675220845E+08,
2460742.500000000, A.D. 2025-Mar-08 00:00:00.0000, -4.243729648793957E+08, 2.939090204977907E+08, -2.709003684043548E+08,
2460749.500000000, A.D. 2025-Mar-15 00:00:00.0000, -4.287869394464871E+08, 2.885069985576794E+08, -2.700127643662181E+08,
2460756.500000000, A.D. 2025-Mar-22 00:00:00.0000, -4.330958550635481E+08, 2.830343025112806E+08, -2.690590139633770E+08,
2460763.500000000, A.D. 2025-Mar-29 00:00:00.0000, -4.372986897403510E+08, 2.774922993068231E+08, -2.680393717875934E+08,
2460770.500000000, A.D. 2025-Apr-05 00:00:00.0000, -4.413944173206540E+08, 2.718823510756794E+08, -2.669540887696583E+08,
2460777.500000000, A.D. 2025-Apr-12 00:00:00.0000, -4.453820062098442E+08, 2.662058160546012E+08, -2.658034123850341E+08,
2460784.500000000, A.D. 2025-Apr-19 00:00:00.0000, -4.492604185298427E+08, 2.604640496204560E+08, -2.645875868181500E+08,
2460791.500000000, A.D. 2025-Apr-26 00:00:00.0000, -4.530286094285021E+08, 2.546584052365619E+08, -2.633068531275313E+08,
2460798.500000000, A.D. 2025-May-03 00:00:00.0000, -4.566855264287058E+08, 2.487902353317754E+08, -2.619614494210320E+08,
2460805.500000000, A.D. 2025-May-10 00:00:00.0000, -4.602301087875464E+08, 2.428608921228513E+08, -2.605516110434299E+08,
2460812.500000000, A.D. 2025-May-17 00:00:00.0000, -4.636612868279161E+08, 2.368717283408318E+08, -2.590775707834355E+08,
2460819.500000000, A.D. 2025-May-24 00:00:00.0000, -4.669779810676944E+08, 2.308240978087599E+08, -2.575395591208389E+08,
2460826.500000000, A.D. 2025-May-31 00:00:00.0000, -4.701791007279143E+08, 2.247193561834084E+08, -2.559378045270036E+08,
2460833.500000000, A.D. 2025-Jun-07 00:00:00.0000, -4.732635420201408E+08, 2.185588630674329E+08, -2.542725336838406E+08,
2460840.500000000, A.D. 2025-Jun-14 00:00:00.0000, -4.762301885772157E+08, 2.123439848268549E+08, -2.525439714596356E+08,
2460847.500000000, A.D. 2025-Jun-21 00:00:00.0000, -4.790779128100851E+08, 2.060760948448446E+08, -2.507523410215270E+08,
2460854.500000000, A.D. 2025-Jun-28 00:00:00.0000, -4.818055750614421E+08, 1.997565729786822E+08, -2.488978642274480E+08,
2460861.500000000, A.D. 2025-Jul-05 00:00:00.0000, -4.844120220721641E+08, 1.933868063779220E+08, -2.469807619823369E+08,
2460868.500000000, A.D. 2025-Jul-12 00:00:00.0000, -4.868960859513310E+08, 1.869681908602808E+08, -2.450012545160517E+08,
2460875.500000000, A.D. 2025-Jul-19 00:00:00.0000, -4.892565834599456E+08, 1.805021322725199E+08, -2.429595616483130E+08,
2460882.500000000, A.D. 2025-Jul-26 00:00:00.0000, -4.914923153979697E+08, 1.739900477821934E+08, -2.408559030653049E+08,
2460889.500000000, A.D. 2025-Aug-02 00:00:00.0000, -4.936020660288462E+08, 1.674333671243638E+08, -2.386904986128556E+08,
2460896.500000000, A.D. 2025-Aug-09 00:00:00.0000, -4.955846025177211E+08, 1.608335337912244E+08, -2.364635686102784E+08,
2460903.500000000, A.D. 2025-Aug-16 00:00:00.0000, -4.974386743061142E+08, 1.541920061041287E+08, -2.341753341978855E+08,
2460910.500000000, A.D. 2025-Aug-23 00:00:00.0000, -4.991630121301398E+08, 1.475102581873689E+08, -2.318260177444774E+08,
2460917.500000000, A.D. 2025-Aug-30 00:00:00.0000, -5.007563263530966E+08, 1.407897815606155E+08, -2.294158432874445E+08,
2460924.500000000, A.D. 2025-Sep-06 00:00:00.0000, -5.022173060305162E+08, 1.340320883530880E+08, -2.269450367946702E+08,
2460931.500000000, A.D. 2025-Sep-13 00:00:00.0000, -5.035446203788505E+08, 1.272387136597051E+08, -2.244138262994446E+08,
2460938.500000000, A.D. 2025-Sep-20 00:00:00.0000, -5.047369193748262E+08, 1.204112153986926E+08, -2.218224423445097E+08,
2460945.500000000, A.D. 2025-Sep-27 00:00:00.0000, -5.057928324265923E+08, 1.135511747859914E+08, -2.191711185789160E+08,
2460952.500000000, A.D. 2025-Oct-04 00:00:00.0000, -5.067109671334470E+08, 1.066601979690437E+08, -2.164600922799131E+08,
2460959.500000000, A.D. 2025-Oct-11 00:00:00.0000, -5.074899085084381E+08, 9.973991788087668E+07, -2.136896048446512E+08,
2460966.500000000, A.D. 2025-Oct-18 00:00:00.0000, -5.081282183807217E+08, 9.279199604471502E+07, -2.108599023021779E+08,
2460973.500000000, A.D. 2025-Oct-25 00:00:00.0000, -5.086244348384877E+08, 8.581812434508461E+07, -2.079712358594984E+08,
2460980.500000000, A.D. 2025-Nov-01 00:00:00.0000, -5.089770716732959E+08, 7.882002678590657E+07, -2.050238624858754E+08,
2460987.500000000, A.D. 2025-Nov-08 00:00:00.0000, -5.091846177917153E+08, 7.179946120915040E+07, -2.020180455431021E+08,
2460994.500000000, A.D. 2025-Nov-15 00:00:00.0000, -5.092455364471755E+08, 6.475822092049282E+07, -1.989540554824881E+08,
2461001.500000000, A.D. 2025-Nov-22 00:00:00.0000, -5.091582638905509E+08, 5.769813644729180E+07, -1.958321706303870E+08,
2461008.500000000, A.D. 2025-Nov-29 00:00:00.0000, -5.089212075942850E+08, 5.062107856943452E+07, -1.926526779588051E+08,
2461015.500000000, A.D. 2025-Dec-06 00:00:00.0000, -5.085327463296527E+08, 4.352896249299539E+07, -1.894158736472042E+08,
2461022.500000000, A.D. 2025-Dec-13 00:00:00.0000, -5.079912316664215E+08, 3.642374980325098E+07, -1.861220637551799E+08,
2461029.500000000, A.D. 2025-Dec-20 00:00:00.0000, -5.072949874042967E+08, 2.930744922825135E+07, -1.827715652468768E+08,
2461036.500000000, A.D. 2025-Dec-27 00:00:00.0000, -5.064423080118519E+08, 2.218211881222503E+07, -1.793647070603071E+08,
2461043.500000000, A.D. 2026-Jan-03 00:00:00.0000, -5.054314575347342E+08, 1.504986889098206E+07, -1.759018311420119E+08,
2461050.500000000, A.D. 2026-Jan-10 00:00:00.0000, -5.042606688669115E+08, 7.912865198875263E+06, -1.723832935173638E+08,
2461057.500000000, A.D. 2026-Jan-17 00:00:00.0000, -5.029281431563863E+08, 7.733320251432881E+05, -1.688094654303788E+08,
2461064.500000000, A.D. 2026-Jan-24 00:00:00.0000, -5.014320492717589E+08, -6.366444547691323E+06, -1.651807345635978E+08,
2461071.500000000, A.D. 2026-Jan-31 00:00:00.0000, -4.997705233110382E+08, -1.350411332027789E+07, -1.614975063464448E+08,
2461078.500000000, A.D. 2026-Feb-07 00:00:00.0000, -4.979416680967155E+08, -2.063725461405568E+07, -1.577602053685298E+08,
2461085.500000000, A.D. 2026-Feb-14 00:00:00.0000, -4.959435524103221E+08, -2.776337687369418E+07, -1.539692769290377E+08,
2461092.500000000, A.D. 2026-Feb-21 00:00:00.0000, -4.937742095859134E+08, -3.487991264510125E+07, -1.501251887177759E+08,
2461099.500000000, A.D. 2026-Feb-28 00:00:00.0000, -4.914316365551011E+08, -4.198421276294731E+07, -1.462284324418671E+08,
2461106.500000000, A.D. 2026-Mar-07 00:00:00.0000, -4.889137954114490E+08, -4.907354068493202E+07, -1.422795253774007E+08,
2461113.500000000, A.D. 2026-Mar-14 00:00:00.0000, -4.862186147297055E+08, -5.614506929166575E+07, -1.382790123010850E+08,
2461120.500000000, A.D. 2026-Mar-21 00:00:00.0000, -4.833439888685702E+08, -6.319587723875550E+07, -1.342274677384235E+08,
2461127.500000000, A.D. 2026-Mar-28 00:00:00.0000, -4.802877772782134E+08, -7.022294381683578E+07, -1.301254982700372E+08,
2461134.500000000, A.D. 2026-Apr-04 00:00:00.0000, -4.770478044300635E+08, -7.722314326968431E+07, -1.259737449309551E+08,
2461141.500000000, A.D. 2026-Apr-11 00:00:00.0000, -4.736218601112170E+08, -8.419323891404544E+07, -1.217728857701081E+08,
2461148.500000000, A.D. 2026-Apr-18 00:00:00.0000, -4.700076999425125E+08, -9.112987705044809E+07, -1.175236385989525E+08,
2461155.500000000, A.D. 2026-Apr-25 00:00:00.0000, -4.662030460948656E+08, -9.802958063208199E+07, -1.132267639471024E+08,
2461162.500000000, A.D. 2026-May-02 00:00:00.0000, -4.622055881961685E+08, -1.048887427023885E+08, -1.088830682464361E+08,
2461169.500000000, A.D. 2026-May-09 00:00:00.0000, -4.580129843302550E+08, -1.117036196477746E+08, -1.044934072782450E+08,
2461176.500000000, A.D. 2026-May-16 00:00:00.0000, -4.536228617794949E+08, -1.184703241062933E+08, -1.000586899260568E+08,
2461183.500000000, A.D. 2026-May-23 00:00:00.0000, -4.490328174923114E+08, -1.251848164881377E+08, -9.557988217614970E+07,
2461190.500000000, A.D. 2026-May-30 00:00:00.0000, -4.442404203912895E+08, -1.318428947661909E+08, -9.105801117168641E+07,
2461197.500000000, A.D. 2026-Jun-06 00:00:00.0000, -4.392432158824296E+08, -1.384401857886351E+08, -8.649416958383605E+07,
2461204.500000000, A.D. 2026-Jun-13 00:00:00.0000, -4.340387289486362E+08, -1.449721378921596E+08, -8.188952064466378E+07,
2461211.500000000, A.D. 2026-Jun-20 00:00:00.0000, -4.286244663798642E+08, -1.514340118602620E+08, -7.724530358433171E+07,
2461218.500000000, A.D. 2026-Jun-27 00:00:00.0000, -4.229979198981310E+08, -1.578208705415125E+08, -7.256283937902640E+07,
2461225.500000000, A.D. 2026-Jul-04 00:00:00.0000, -4.171565702432708E+08, -1.641275678831404E+08, -6.784353690156211E+07,
2461232.500000000, A.D. 2026-Jul-11 00:00:00.0000, -4.110978920368077E+08, -1.703487374878626E+08, -6.308889954153372E+07,
2461239.500000000, A.D. 2026-Jul-18 00:00:00.0000, -4.048193594133480E+08, -1.764787806473674E+08, -5.830053233973938E+07,
2461246.500000000, A.D. 2026-Jul-25 00:00:00.0000, -3.983184524885104E+08, -1.825118538325857E+08, -5.348014967949405E+07,
2461253.500000000, A.D. 2026-Aug-01 00:00:00.0000, -3.915926647214054E+08, -1.884418556744690E+08, -4.862958358644263E+07,
2461260.500000000, A.D. 2026-Aug-08 00:00:00.0000, -3.846395110763798E+08, -1.942624134596074E+08, -4.375079270518122E+07,
2461267.500000000, A.D. 2026-Aug-15 00:00:00.0000, -3.774565367023005E+08, -1.999668686825826E+08, -3.884587200154927E+07,
2461274.500000000, A.D. 2026-Aug-22 00:00:00.0000, -3.700413270378755E+08, -2.055482604318084E+08, -3.391706307034831E+07,
2461281.500000000, A.D. 2026-Aug-29 00:00:00.0000, -3.623915217954334E+08, -2.109993079884971E+08, -2.896676500208390E+07,
2461288.500000000, A.D. 2026-Sep-05 00:00:00.0000, -3.545048308728434E+08, -2.163123955257077E+08, -2.399754629228786E+07,
$$EOE